NORAD_CAT_ID,OBJECT_NAME,OBJECT_TYPE,EPOCH,MEAN_MOTION,ECCENTRICITY,INCLINATION,RA_OF_ASC_NODE,ARG_OF_PERICENTER,MEAN_ANOMALY,BSTAR,MEAN_MOTION_DOT,MEAN_MOTION_DDOT,TLE_LINE0,TLE_LINE1,TLE_LINE2,SEMIMAJOR_AXIS,PERIOD,APOGEE,PERIGEE,DECAYED
53588.0,STARLINK-4691,PAYLOAD,2023-11-21 12:13:48,15.08842556,0.0001805,53.2187,51.5984,68.694,291.4245,6.1976e-05,6.98e-06,0.0,0 STARLINK-4691,1 53588U 22104A   23325.50958774  .00000698  00000-0  61976-4 0  9994,2 53588  53.2187  51.5984 0001805  68.6940 291.4245 15.08842556 69406,6917.873,95.437,540.986,538.489,0.0
53588.0,STARLINK-4691,PAYLOAD,2023-11-22 12:04:34,15.08853441,0.0001569,53.2184,47.1375,74.7139,285.4026,0.00014279,1.986e-05,0.0,0 STARLINK-4691,1 53588U 22104A   23326.50317552  .00001986  00000-0  14279-3 0  9992,2 53588  53.2184  47.1375 0001569  74.7139 285.4026 15.08853441 68384,6917.839,95.437,540.79,538.619,0.0
53588.0,STARLINK-4691,PAYLOAD,2023-11-23 11:55:22,15.08834334,0.0001853,53.2202,42.6752,112.5779,247.5409,-6.7714e-05,-1.365e-05,0.0,0 STARLINK-4691,1 53588U 22104A   23327.49678755 -.00001365  00000-0 -67714-4 0  9992,2 53588  53.2202  42.6752 0001853 112.5779 247.5409 15.08834334 68532,6917.898,95.438,541.045,538.481,0.0
53588.0,STARLINK-4691,PAYLOAD,2023-11-24 13:21:33,15.08840944,0.0001692,53.2193,37.9147,112.5602,247.5569,-9.6463e-05,-1.823e-05,0.0,0 STARLINK-4691,1 53588U 22104A   23328.55663305 -.00001823  00000-0 -96463-4 0  9997,2 53588  53.2193  37.9147 0001692 112.5602 247.5569 15.08840944 69860,6917.878,95.437,540.913,538.572,0.0
53588.0,STARLINK-4691,PAYLOAD,2023-11-25 10:01:33,15.08846826,0.0001512,53.2191,34.0496,91.6826,268.4339,0.00036901,5.591e-05,0.0,0 STARLINK-4691,1 53588U 22104A   23329.41775145  .00005591  00000-0  36901-3 0  9993,2 53588  53.2191  34.0496 0001512  91.6826 268.4339 15.08846826 69995,6917.86,95.437,540.771,538.679,0.0
53588.0,STARLINK-4691,PAYLOAD,2023-11-26 11:27:42,15.08862627,0.000154,53.2179,29.2949,88.4905,271.6263,0.00029192,4.364e-05,0.0,0 STARLINK-4691,1 53588U 22104A   23330.47757783  .00004364  00000-0  29192-3 0  9990,2 53588  53.2179  29.2949 0001540  88.4905 271.6263 15.08862627 68980,6917.811,95.436,540.742,538.611,0.0
53588.0,STARLINK-4691,PAYLOAD,2023-11-27 03:21:35,15.08833474,0.0001869,53.2183,26.3242,84.2683,275.8522,-0.00025076,-4.276e-05,0.0,0 STARLINK-4691,1 53588U 22104A   23331.13999394 -.00004276  00000-0 -25076-3 0  9991,2 53588  53.2183  26.3242 0001869  84.2683 275.8522 15.08833474 69084,6917.9,95.438,541.058,538.472,0.0
53588.0,STARLINK-4691,PAYLOAD,2023-11-27 11:18:32,15.08809462,0.0001869,53.219,24.8363,69.0946,291.0246,-0.00049947,-8.222e-05,0.0,0 STARLINK-4691,1 53588U 22104A   23331.47121060 -.00008222  00000-0 -49947-3 0  9993,2 53588  53.2190  24.8363 0001869  69.0946 291.0246 15.08809462 69131,6917.974,95.439,541.132,538.546,0.0
53588.0,STARLINK-4691,PAYLOAD,2023-11-27 12:53:55,15.08815118,0.0001432,53.2181,24.5321,98.2355,261.88,-0.00043073,-7.132e-05,0.0,0 STARLINK-4691,1 53588U 22104A   23331.53744673 -.00007132  00000-0 -43073-3 0  9994,2 53588  53.2181  24.5321 0001432  98.2355 261.8800 15.08815118 70314,6917.956,95.439,540.812,538.831,0.0
53588.0,STARLINK-4691,PAYLOAD,2023-11-28 03:12:23,15.08824821,0.0001404,53.2188,21.8592,79.9196,280.1954,-0.00023871,-4.083e-05,0.0,0 STARLINK-4691,1 53588U 22104A   23332.13360853 -.00004083  00000-0 -23871-3 0  9991,2 53588  53.2188  21.8592 0001404  79.9196 280.1954 15.08824821 69233,6917.927,95.439,540.763,538.821,0.0
53588.0,STARLINK-4691,PAYLOAD,2023-11-28 11:09:18,15.08847518,0.000151,53.2191,20.3725,92.8221,267.2944,0.00016959,2.413e-05,0.0,0 STARLINK-4691,1 53588U 22104A   23332.46479934  .00002413  00000-0  16959-3 0  9990,2 53588  53.2191  20.3725 0001510  92.8221 267.2944 15.08847518 69288,6917.857,95.437,540.767,538.678,0.0
53588.0,STARLINK-4691,PAYLOAD,2023-11-29 03:03:11,15.08836995,0.0002182,53.2179,17.4045,60.7016,299.4194,0.00066809,0.0001036,0.0,0 STARLINK-4691,1 53588U 22104A   23333.12721211  .00010360  00000-0  66809-3 0  9991,2 53588  53.2179  17.4045 0002182  60.7016 299.4194 15.08836995 69380,6917.89,95.438,541.264,538.245,0.0
53588.0,STARLINK-4691,PAYLOAD,2023-11-29 09:24:43,15.08845373,0.0002237,53.2183,16.2152,60.2842,299.8372,0.00070395,0.00010935,0.0,0 STARLINK-4691,1 53588U 22104A   23333.39217098  .00010935  00000-0  70395-3 0  9996,2 53588  53.2183  16.2152 0002237  60.2842 299.8372 15.08845373 70591,6917.864,95.437,541.276,538.181,0.0
53588.0,STARLINK-4691,PAYLOAD,2023-11-30 09:15:29,15.08853076,0.0001775,53.2173,11.7509,85.3728,274.7467,0.0001202,1.626e-05,0.0,0 STARLINK-4691,1 53588U 22104A   23334.38575985  .00001626  00000-0  12020-3 0  9996,2 53588  53.2173  11.7509 0001775  85.3728 274.7467 15.08853076 69575,6917.84,95.437,540.933,538.478,0.0
53588.0,STARLINK-4691,PAYLOAD,2023-12-01 07:30:53,15.08840054,0.0001905,53.2176,7.5878,113.1273,246.992,-0.00012574,-2.289e-05,0.0,0 STARLINK-4691,1 53588U 22104A   23335.31312408 -.00002289  00000-0 -12574-3 0  9991,2 53588  53.2176   7.5878 0001905 113.1273 246.9920 15.08840054 69713,6917.88,95.438,541.063,538.427,0.0
53588.0,STARLINK-4691,PAYLOAD,2023-12-01 12:17:03,15.08837583,0.0001676,53.2173,6.695,106.6281,253.4896,-0.00013056,-2.365e-05,0.0,0 STARLINK-4691,1 53588U 22104A   23335.51184589 -.00002365  00000-0 -13056-3 0  9991,2 53588  53.2173   6.6950 0001676 106.6281 253.4896 15.08837583 70914,6917.888,95.438,540.912,538.593,0.0
53588.0,STARLINK-4691,PAYLOAD,2023-12-02 07:21:39,15.08879058,0.0002285,53.2188,3.1266,121.028,239.0937,0.00082941,0.00012951,0.0,0 STARLINK-4691,1 53588U 22104A   23336.30670636  .00012951  00000-0  82941-3 0  9991,2 53588  53.2188   3.1266 0002285 121.0280 239.0937 15.08879058 69860,6917.761,95.435,541.207,538.045,0.0
53588.0,STARLINK-4691,PAYLOAD,2023-12-03 02:26:19,15.08806508,0.0001503,53.2178,359.5559,85.4782,274.6381,-0.00059086,-9.671e-05,0.0,0 STARLINK-4691,1 53588U 22104A   23337.10161082 -.00009671  00000-0 -59086-3 0  9991,2 53588  53.2178 359.5559 0001503  85.4782 274.6381 15.08806508 69985,6917.983,95.44,540.888,538.808,0.0
53588.0,STARLINK-4691,PAYLOAD,2023-12-03 08:47:51,15.08810031,0.0001632,53.2174,358.3681,87.073,273.0449,-0.00050774,-8.353e-05,0.0,0 STARLINK-4691,1 53588U 22104A   23337.36657331 -.00008353  00000-0 -50774-3 0  9997,2 53588  53.2174 358.3681 0001632  87.0730 273.0449 15.08810031 70029,6917.972,95.439,540.966,538.708,0.0
53588.0,STARLINK-4691,PAYLOAD,2023-12-04 00:41:43,15.08818974,0.0001608,53.2176,355.395,73.7779,286.339,-0.00021063,-3.637e-05,0.0,0 STARLINK-4691,1 53588U 22104A   23338.02897881 -.00003637  00000-0 -21063-3 0  9996,2 53588  53.2176 355.3950 0001608  73.7779 286.3390 15.08818974 70122,6917.945,95.439,540.922,538.697,0.0
53588.0,STARLINK-4691,PAYLOAD,2023-12-04 10:14:03,15.08826419,0.0001797,53.2176,353.6116,70.7063,289.4124,0.00091656,0.00014324,0.0,0 STARLINK-4691,1 53588U 22104A   23338.42642881  .00014324  00000-0  91656-3 0  9996,2 53588  53.2176 353.6116 0001797  70.7063 289.4124 15.08826419 71357,6917.922,95.438,541.03,538.544,0.0
53588.0,STARLINK-4691,PAYLOAD,2023-12-04 22:57:08,15.08853157,0.000183,53.2171,351.2326,71.6607,288.4584,0.0011704,0.00018395,0.0,0 STARLINK-4691,1 53588U 22104A   23338.95634647  .00018395  00000-0  11704-2 0  9992,2 53588  53.2171 351.2326 0001830  71.6607 288.4584 15.08853157 70268,6917.84,95.437,540.971,538.439,0.0
53588.0,STARLINK-4691,PAYLOAD,2023-12-05 10:04:49,15.08875543,0.0001898,53.2168,349.1516,72.1774,287.9425,0.001354,0.00021348,0.0,0 STARLINK-4691,1 53588U 22104A   23339.42001809  .00021348  00000-0  13540-2 0  9995,2 53588  53.2168 349.1516 0001898  72.1774 287.9425 15.08875543 71505,6917.772,95.435,540.95,538.324,0.0
53588.0,STARLINK-4691,PAYLOAD,2023-12-06 00:23:17,15.08852515,0.0001835,53.2167,346.4751,81.8022,278.3179,0.00084303,0.00013159,0.0,0 STARLINK-4691,1 53588U 22104A   23340.01617913  .00013159  00000-0  84303-3 0  9998,2 53588  53.2167 346.4751 0001835  81.8022 278.3179 15.08852515 70423,6917.842,95.437,540.977,538.438,0.0
53588.0,STARLINK-4691,PAYLOAD,2023-12-06 09:55:36,15.08845335,0.0002017,53.2171,344.6905,77.6001,282.5217,0.00032967,4.963e-05,0.0,0 STARLINK-4691,1 53588U 22104A   23340.41362095  .00004963  00000-0  32967-3 0  9992,2 53588  53.2171 344.6905 0002017  77.6001 282.5217 15.08845335 70480,6917.864,95.437,541.124,538.334,0.0
53588.0,STARLINK-4691,PAYLOAD,2023-12-07 06:35:37,15.08862049,0.0002069,53.2172,340.8247,75.7407,284.3815,0.00076266,0.00011878,0.0,0 STARLINK-4691,1 53588U 22104A   23341.27473429  .00011878  00000-0  76266-3 0  9994,2 53588  53.2172 340.8247 0002069  75.7407 284.3815 15.08862049 71783,6917.813,95.436,541.109,538.247,0.0
53588.0,STARLINK-4691,PAYLOAD,2023-12-08 03:15:37,15.08856605,0.0001927,53.218,336.96,91.343,268.7783,0.00038596,5.863e-05,0.0,0 STARLINK-4691,1 53588U 22104A   23342.13584963  .00005863  00000-0  38596-3 0  9997,2 53588  53.2180 336.9600 0001927  91.3430 268.7783 15.08856605 70749,6917.83,95.437,541.028,538.362,0.0
53588.0,STARLINK-4691,PAYLOAD,2023-12-08 09:37:09,15.0885248,0.0001999,53.2176,335.7704,95.9103,264.2117,0.00031122,4.67e-05,0.0,0 STARLINK-4691,1 53588U 22104A   23342.40080854  .00004670  00000-0  31122-3 0  9990,2 53588  53.2176 335.7704 0001999  95.9103 264.2117 15.08852480 71955,6917.842,95.437,541.09,538.324,0.0
53588.0,STARLINK-4691,PAYLOAD,2023-12-09 03:06:24,15.08842293,0.0002076,53.217,332.4967,96.9426,263.1802,0.00012837,1.756e-05,0.0,0 STARLINK-4691,1 53588U 22104A   23343.12945070  .00001756  00000-0  12837-3 0  9994,2 53588  53.2170 332.4967 0002076  96.9426 263.1802 15.08842293 70892,6917.873,95.437,541.175,538.302,0.0
53588.0,STARLINK-4691,PAYLOAD,2023-12-09 06:17:10,15.08844426,0.0002157,53.217,331.9017,101.0048,259.1187,5.3674e-05,5.66e-06,0.0,0 STARLINK-4691,1 53588U 22104A   23343.26192968  .00000566  00000-0  53674-4 0  9992,2 53588  53.2170 331.9017 0002157 101.0048 259.1187 15.08844426 72084,6917.867,95.437,541.224,538.24,0.0
